NORAD_CAT_ID,OBJECT_NAME,OBJECT_TYPE,EPOCH,MEAN_MOTION,ECCENTRICITY,INCLINATION,RA_OF_ASC_NODE,ARG_OF_PERICENTER,MEAN_ANOMALY,BSTAR,MEAN_MOTION_DOT,MEAN_MOTION_DDOT,TLE_LINE0,TLE_LINE1,TLE_LINE2,SEMIMAJOR_AXIS,PERIOD,APOGEE,PERIGEE,DECAYED
51118.0,STARLINK-3394,PAYLOAD,2023-10-12 09:55:36,15.08842741,0.0001738,53.2172,276.347,94.6909,265.4282,0.00015237,2.138e-05,0.0,0 STARLINK-3394,1 51118U 22005Q   23285.41361751  .00002138  00000-0  15237-3 0  9998,2 51118  53.2172 276.3470 0001738  94.6909 265.4282 15.08842741 96131,6917.872,95.437,540.939,538.535,0.0
51118.0,STARLINK-3394,PAYLOAD,2023-10-12 16:17:09,15.08838739,0.0001579,53.216,275.1552,91.3904,268.7269,3.0365e-05,1.95e-06,0.0,0 STARLINK-3394,1 51118U 22005Q   23285.67857801  .00000195  00000-0  30365-4 0  9993,2 51118  53.2160 275.1552 0001579  91.3904 268.7269 15.08838739 96175,6917.884,95.438,540.842,538.657,0.0
51118.0,STARLINK-3394,PAYLOAD,2023-10-13 08:11:00,15.08842708,0.0001818,53.2174,272.1813,95.4541,264.6658,0.00014392,2.003e-05,0.0,0 STARLINK-3394,1 51118U 22005Q   23286.34098036  .00002003  00000-0  14392-3 0  9996,2 51118  53.2174 272.1813 0001818  95.4541 264.6658 15.08842708 97387,6917.872,95.437,540.995,538.479,0.0
51118.0,STARLINK-3394,PAYLOAD,2023-10-13 16:07:56,15.0884641,0.0001859,53.2163,270.6938,84.0739,276.0465,6.335e-05,7.2e-06,0.0,0 STARLINK-3394,1 51118U 22005Q   23286.67217774  .00000720  00000-0  63350-4 0  9997,2 51118  53.2163 270.6938 0001859  84.0739 276.0465 15.08846410 96324,6917.861,95.437,541.012,538.44,0.0
51118.0,STARLINK-3394,PAYLOAD,2023-10-14 08:01:47,15.08850658,0.000172,53.2164,267.7203,82.7088,277.41,0.00012701,1.734e-05,0.0,0 STARLINK-3394,1 51118U 22005Q   23287.33457431  .00001734  00000-0  12701-3 0  9996,2 51118  53.2164 267.7203 0001720  82.7088 277.4100 15.08850658 96427,6917.848,95.437,540.903,538.523,0.0
51118.0,STARLINK-3394,PAYLOAD,2023-10-14 15:58:43,15.08838251,0.0001685,53.217,266.2335,90.0869,270.0316,3.1158e-05,2.08e-06,0.0,0 STARLINK-3394,1 51118U 22005Q   23287.66578069  .00000208  00000-0  31158-4 0  9996,2 51118  53.2170 266.2335 0001685  90.0869 270.0316 15.08838251 97584,6917.886,95.438,540.916,538.585,0.0
51118.0,STARLINK-3394,PAYLOAD,2023-10-15 07:52:35,15.08834682,0.0001444,53.2157,263.2576,103.9354,256.1798,-4.1351e-05,-9.46e-06,0.0,0 STARLINK-3394,1 51118U 22005Q   23288.32818553 -.00000946  00000-0 -41351-4 0  9992,2 51118  53.2157 263.2576 0001444 103.9354 256.1798 15.08834682 96570,6917.897,95.438,540.761,538.763,0.0
51118.0,STARLINK-3394,PAYLOAD,2023-10-15 15:49:31,15.08836902,0.0001541,53.2156,261.7729,96.4442,263.6725,2.2791e-05,7.5e-07,0.0,0 STARLINK-3394,1 51118U 22005Q   23288.65938673  .00000075  00000-0  22791-4 0  9992,2 51118  53.2156 261.7729 0001541  96.4442 263.6725 15.08836902 96620,6917.89,95.438,540.821,538.689,0.0
51118.0,STARLINK-3394,PAYLOAD,2023-10-16 04:32:35,15.08853008,0.0001352,53.2155,259.3935,102.8155,257.2988,0.00022451,3.288e-05,0.0,0 STARLINK-3394,1 51118U 22005Q   23289.18929928  .00003288  00000-0  22451-3 0  9995,2 51118  53.2155 259.3935 0001352 102.8155 257.2988 15.08853008 97812,6917.841,95.437,540.641,538.77,0.0
51118.0,STARLINK-3394,PAYLOAD,2023-10-16 07:43:21,15.08856206,0.0001357,53.2153,258.7984,104.7875,255.3268,0.00048061,7.373e-05,0.0,0 STARLINK-3394,1 51118U 22005Q   23289.32177973  .00007373  00000-0  48061-3 0  9990,2 51118  53.2153 258.7984 0001357 104.7875 255.3268 15.08856206 96724,6917.831,95.437,540.635,538.757,0.0
51118.0,STARLINK-3394,PAYLOAD,2023-10-17 04:23:22,15.08851032,0.0001283,53.2157,254.9327,97.5928,262.521,0.00041381,6.306e-05,0.0,0 STARLINK-3394,1 51118U 22005Q   23290.18290377  .00006306  00000-0  41381-3 0  9993,2 51118  53.2157 254.9327 0001283  97.5928 262.5210 15.08851032 97969,6917.847,95.437,540.599,538.824,0.0
51118.0,STARLINK-3394,PAYLOAD,2023-10-18 02:38:46,15.088468,0.0001306,53.2158,250.7694,103.2524,256.8614,0.0002296,3.369e-05,0.0,0 STARLINK-3394,1 51118U 22005Q   23291.11026393  .00003369  00000-0  22960-3 0  9990,2 51118  53.2158 250.7694 0001306 103.2524 256.8614 15.08846800 96997,6917.86,95.437,540.628,538.821,0.0
51118.0,STARLINK-3394,PAYLOAD,2023-10-18 04:14:09,15.08846885,0.0001245,53.2159,250.4728,103.4952,256.6179,0.00017738,2.537e-05,0.0,0 STARLINK-3394,1 51118U 22005Q   23291.17650343  .00002537  00000-0  17738-3 0  9997,2 51118  53.2159 250.4728 0001245 103.4952 256.6179 15.08846885 98115,6917.859,95.437,540.586,538.863,0.0
51118.0,STARLINK-3394,PAYLOAD,2023-10-18 20:08:01,15.08848422,0.0001257,53.2158,247.4984,101.1371,258.9762,0.00024958,3.687e-05,0.0,0 STARLINK-3394,1 51118U 22005Q   23291.83890217  .00003687  00000-0  24958-3 0  9995,2 51118  53.2158 247.4984 0001257 101.1371 258.9762 15.08848422 97107,6917.855,95.437,540.589,538.85,0.0
51118.0,STARLINK-3394,PAYLOAD,2023-10-19 04:04:56,15.08849805,0.000128,53.2157,246.0151,98.6971,261.4166,0.00020447,2.969e-05,0.0,0 STARLINK-3394,1 51118U 22005Q   23292.17010211  .00002969  00000-0  20447-3 0  9992,2 51118  53.2157 246.0151 0001280  98.6971 261.4166 15.08849805 97157,6917.85,95.437,540.601,538.83,0.0
51118.0,STARLINK-3394,PAYLOAD,2023-10-20 03:55:44,15.08843506,0.0001367,53.216,241.5544,100.1269,259.9877,0.00011327,1.515e-05,0.0,0 STARLINK-3394,1 51118U 22005Q   23293.16370429  .00001515  00000-0  11327-3 0  9995,2 51118  53.2160 241.5544 0001367 100.1269 259.9877 15.08843506 98415,6917.87,95.437,540.68,538.789,0.0
51118.0,STARLINK-3394,PAYLOAD,2023-10-20 07:06:30,15.08847276,0.0001336,53.2153,240.9585,95.9622,264.1523,0.00016262,2.302e-05,0.0,0 STARLINK-3394,1 51118U 22005Q   23293.29618225  .00002302  00000-0  16262-3 0  9996,2 51118  53.2153 240.9585 0001336  95.9622 264.1523 15.08847276 97328,6917.858,95.437,540.647,538.799,0.0
51118.0,STARLINK-3394,PAYLOAD,2023-10-21 02:11:08,15.08833584,0.0001637,53.2163,237.3875,84.2714,275.8464,-9.0564e-05,-1.729e-05,0.0,0 STARLINK-3394,1 51118U 22005Q   23294.09107353 -.00001729  00000-0 -90564-4 0  9992,2 51118  53.2163 237.3875 0001637  84.2714 275.8464 15.08833584 98554,6917.9,95.438,540.897,538.633,0.0
51118.0,STARLINK-3394,PAYLOAD,2023-10-21 13:18:50,15.08845061,0.0001625,53.2163,235.3058,80.1668,279.9507,8.7133e-05,1.099e-05,0.0,0 STARLINK-3394,1 51118U 22005Q   23294.55474898  .00001099  00000-0  87133-4 0  9990,2 51118  53.2163 235.3058 0001625  80.1668 279.9507 15.08845061 97516,6917.865,95.437,540.854,538.606,0.0
51118.0,STARLINK-3394,PAYLOAD,2023-10-22 03:37:18,15.08867969,0.0001794,53.2163,232.6294,81.1454,278.9741,0.00088537,0.00013841,0.0,0 STARLINK-3394,1 51118U 22005Q   23295.15090341  .00013841  00000-0  88537-3 0  9990,2 51118  53.2163 232.6294 0001794  81.1454 278.9741 15.08867969 98712,6917.795,95.436,540.901,538.419,0.0
51118.0,STARLINK-3394,PAYLOAD,2023-10-22 13:09:36,15.08849568,0.0001584,53.2156,230.8498,104.3058,255.811,-6.2419e-05,-1.282e-05,0.0,0 STARLINK-3394,1 51118U 22005Q   23295.54834315 -.00001282  00000-0 -62419-4 0  9990,2 51118  53.2156 230.8498 0001584 104.3058 255.8110 15.08849568 97667,6917.851,95.437,540.812,538.62,0.0
51118.0,STARLINK-3394,PAYLOAD,2023-10-23 01:52:42,15.08833084,0.0001649,53.2151,228.4697,104.7373,255.3802,-1.5665e-05,-5.37e-06,0.0,0 STARLINK-3394,1 51118U 22005Q   23296.07826919 -.00000537  00000-0 -15665-4 0  9993,2 51118  53.2151 228.4697 0001649 104.7373 255.3802 15.08833084 98853,6917.902,95.438,540.907,538.626,0.0
51118.0,STARLINK-3394,PAYLOAD,2023-10-23 13:00:24,15.0883184,0.0001637,53.2153,226.3877,111.0381,249.0786,0.00083955,0.00013096,0.0,0 STARLINK-3394,1 51118U 22005Q   23296.54195576  .00013096  00000-0  83955-3 0  9991,2 51118  53.2153 226.3877 0001637 111.0381 249.0786 15.08831840 97813,6917.905,95.438,540.903,538.638,0.0
51118.0,STARLINK-3394,PAYLOAD,2023-10-24 01:43:30,15.08854741,0.0001764,53.216,224.0092,109.9261,250.1922,0.0015158,0.00023928,0.0,0 STARLINK-3394,1 51118U 22005Q   23297.07187594  .00023928  00000-0  15158-2 0  9995,2 51118  53.2160 224.0092 0001764 109.9261 250.1922 15.08854741 99002,6917.835,95.437,540.921,538.48,0.0
51118.0,STARLINK-3394,PAYLOAD,2023-10-24 12:51:12,15.08848497,0.0001947,53.2166,221.9267,110.6315,249.4886,0.00092958,0.00014541,0.0,0 STARLINK-3394,1 51118U 22005Q   23297.53555636  .00014541  00000-0  92958-3 0  9997,2 51118  53.2166 221.9267 0001947 110.6315 249.4886 15.08848497 97964,6917.854,95.437,541.066,538.373,0.0
51118.0,STARLINK-3394,PAYLOAD,2023-10-25 04:45:03,15.08852412,0.000167,53.2158,218.9538,103.3752,256.7426,0.00047985,7.36e-05,0.0,0 STARLINK-3394,1 51118U 22005Q   23298.19795327  .00007360  00000-0  47985-3 0  9994,2 51118  53.2158 218.9538 0001670 103.3752 256.7426 15.08852412 99177,6917.842,95.437,540.863,538.552,0.0
51118.0,STARLINK-3394,PAYLOAD,2023-10-26 01:25:04,15.08841201,0.0001682,53.2163,215.0866,106.8363,253.2814,6.7646e-05,7.89e-06,0.0,0 STARLINK-3394,1 51118U 22005Q   23299.05907584  .00000789  00000-0  67646-4 0  9995,2 51118  53.2163 215.0866 0001682 106.8363 253.2814 15.08841201 99306,6917.877,95.437,540.905,538.578,0.0
51118.0,STARLINK-3394,PAYLOAD,2023-10-26 04:35:50,15.08842075,0.0001671,53.2162,214.4916,106.5688,253.5488,8.8776e-05,1.125e-05,0.0,0 STARLINK-3394,1 51118U 22005Q   23299.19155539  .00001125  00000-0  88776-4 0  9997,2 51118  53.2162 214.4916 0001671 106.5688 253.5488 15.08842075 98218,6917.874,95.437,540.895,538.583,0.0
51118.0,STARLINK-3394,PAYLOAD,2023-10-27 04:26:36,15.08865741,0.0001412,53.2161,210.0319,92.6539,267.4614,0.00037287,5.655e-05,0.0,0 STARLINK-3394,1 51118U 22005Q   23300.18514015  .00005655  00000-0  37287-3 0  9999,2 51118  53.2161 210.0319 0001412  92.6539 267.4614 15.08865741 99478,6917.802,95.436,540.644,538.69,0.0
51118.0,STARLINK-3394,PAYLOAD,2023-10-27 10:48:09,15.08844818,0.0001543,53.2164,208.8416,75.4353,284.681,8.6149e-05,1.083e-05,0.0,0 STARLINK-3394,1 51118U 22005Q   23300.45010859  .00001083  00000-0  86149-4 0  9999,2 51118  53.2164 208.8416 0001543  75.4353 284.6810 15.08844818 99518,6917.866,95.437,540.798,538.663,0.0
